NORAD_CAT_ID,OBJECT_NAME,OBJECT_TYPE,EPOCH,MEAN_MOTION,ECCENTRICITY,INCLINATION,RA_OF_ASC_NODE,ARG_OF_PERICENTER,MEAN_ANOMALY,BSTAR,MEAN_MOTION_DOT,MEAN_MOTION_DDOT,TLE_LINE0,TLE_LINE1,TLE_LINE2,SEMIMAJOR_AXIS,PERIOD,APOGEE,PERIGEE,DECAYED
51150.0,STARLINK-3357,PAYLOAD,2024-05-27 06:09:14,15.08848463,0.0001255,53.2184,343.1315,143.5679,216.5398,4.4882e-05,4.27e-06,0.0,0 STARLINK-3357,1 51150U 22005AY  24148.25641852  .00000427  00000-0  44882-4 0  9996,2 51150  53.2184 343.1315 0001255 143.5679 216.5398 15.08848463130404,6917.855,95.437,540.588,538.851,0.0
51150.0,STARLINK-3357,PAYLOAD,2024-05-27 20:27:43,15.08839026,8.38e-05,53.2193,340.4534,85.5854,274.5233,7.5057e-05,9.07e-06,0.0,0 STARLINK-3357,1 51150U 22005AY  24148.85258375  .00000907  00000-0  75057-4 0  9997,2 51150  53.2193 340.4534 0000838  85.5854 274.5233 15.08839026131603,6917.883,95.438,540.328,539.169,0.0
51150.0,STARLINK-3357,PAYLOAD,2024-05-27 22:03:06,15.08839401,8.37e-05,53.2192,340.1563,86.6581,273.4507,7.6486e-05,9.3e-06,0.0,0 STARLINK-3357,1 51150U 22005AY  24148.91882348  .00000930  00000-0  76486-4 0  9990,2 51150  53.2192 340.1563 0000837  86.6581 273.4507 15.08839401130506,6917.882,95.438,540.326,539.168,0.0
51150.0,STARLINK-3357,PAYLOAD,2024-05-28 06:00:02,15.08840604,0.0001045,53.2198,338.6683,68.5947,291.5157,6.2572e-05,7.08e-06,0.0,0 STARLINK-3357,1 51150U 22005AY  24149.25002405  .00000708  00000-0  62572-4 0  9990,2 51150  53.2198 338.6683 0001045  68.5947 291.5157 15.08840604130558,6917.879,95.438,540.466,539.021,0.0
51150.0,STARLINK-3357,PAYLOAD,2024-05-28 18:43:06,15.08847453,8.81e-05,53.2192,336.2912,78.1389,281.9702,2.9907e-05,1.88e-06,0.0,0 STARLINK-3357,1 51150U 22005AY  24149.77993818  .00000188  00000-0  29907-4 0  9991,2 51150  53.2192 336.2912 0000881  78.1389 281.9702 15.08847453130632,6917.858,95.437,540.332,539.113,0.0
51150.0,STARLINK-3357,PAYLOAD,2024-05-29 12:12:21,15.08841808,7.78e-05,53.2184,333.0247,75.7608,284.3471,2.7719e-05,1.54e-06,0.0,0 STARLINK-3357,1 51150U 22005AY  24150.50858081  .00000154  00000-0  27719-4 0  9998,2 51150  53.2184 333.0247 0000778  75.7608 284.3471 15.08841808131854,6917.875,95.437,540.278,539.202,0.0
51150.0,STARLINK-3357,PAYLOAD,2024-05-29 16:58:30,15.08839143,7.63e-05,53.2186,332.1302,75.5182,284.5895,4.1216e-06,-2.22e-06,0.0,0 STARLINK-3357,1 51150U 22005AY  24150.70730283 -.00000222  00000-0  41216-5 0  9999,2 51150  53.2186 332.1302 0000763  75.5182 284.5895 15.08839143130778,6917.883,95.438,540.276,539.22,0.0
51150.0,STARLINK-3357,PAYLOAD,2024-05-30 12:03:08,15.08840861,8.28e-05,53.2178,328.5609,73.4656,286.6427,5.3287e-05,5.61e-06,0.0,0 STARLINK-3357,1 51150U 22005AY  24151.50218021  .00000561  00000-0  53287-4 0  9994,2 51150  53.2178 328.5609 0000828  73.4656 286.6427 15.08840861130899,6917.878,95.438,540.316,539.17,0.0
51150.0,STARLINK-3357,PAYLOAD,2024-05-30 18:24:40,15.08844347,8.6e-05,53.218,327.3723,69.8199,290.2885,7.7699e-05,9.49e-06,0.0,0 STARLINK-3357,1 51150U 22005AY  24151.76713721  .00000949  00000-0  77699-4 0  9992,2 51150  53.2180 327.3723 0000860  69.8199 290.2885 15.08844347132044,6917.867,95.437,540.327,539.137,0.0
51150.0,STARLINK-3357,PAYLOAD,2024-05-31 18:15:28,15.0883567,7.93e-05,53.2185,322.9105,79.2286,280.8795,3.9577e-05,3.42e-06,0.0,0 STARLINK-3357,1 51150U 22005AY  24152.76074342  .00000342  00000-0  39577-4 0  9992,2 51150  53.2185 322.9105 0000793  79.2286 280.8795 15.08835670132191,6917.894,95.438,540.307,539.21,0.0
51150.0,STARLINK-3357,PAYLOAD,2024-05-31 21:26:14,15.08833769,8.17e-05,53.2187,322.3163,79.8105,280.2979,2.3988e-05,9.4e-07,0.0,0 STARLINK-3357,1 51150U 22005AY  24152.89322516  .00000094  00000-0  23988-4 0  9998,2 51150  53.2187 322.3163 0000817  79.8105 280.2979 15.08833769131109,6917.899,95.438,540.33,539.199,0.0
51150.0,STARLINK-3357,PAYLOAD,2024-06-01 14:55:29,15.08833388,7.93e-05,53.2184,319.0466,87.2046,272.9037,-4.1681e-05,-9.51e-06,0.0,0 STARLINK-3357,1 51150U 22005AY  24153.62186969 -.00000951  00000-0 -41681-4 0  9994,2 51150  53.2184 319.0466 0000793  87.2046 272.9037 15.08833388131217,6917.901,95.438,540.314,539.217,0.0
51150.0,STARLINK-3357,PAYLOAD,2024-06-02 03:38:33,15.08842334,8.3e-05,53.2186,316.6681,85.8947,274.214,5.2088e-05,5.41e-06,0.0,0 STARLINK-3357,1 51150U 22005AY  24154.15178197  .00000541  00000-0  52088-4 0  9993,2 51150  53.2186 316.6681 0000830  85.8947 274.2140 15.08842334132400,6917.873,95.437,540.312,539.164,0.0
51150.0,STARLINK-3357,PAYLOAD,2024-06-03 03:29:21,15.08836345,8.66e-05,53.2193,312.2077,80.8361,279.2729,6.8283e-05,7.99e-06,0.0,0 STARLINK-3357,1 51150U 22005AY  24155.14538756  .00000799  00000-0  68283-4 0  9993,2 51150  53.2193 312.2077 0000866  80.8361 279.2729 15.08836345132552,6917.892,95.438,540.356,539.157,0.0
51150.0,STARLINK-3357,PAYLOAD,2024-06-03 19:23:12,15.08839337,9.68e-05,53.2193,309.2346,77.4669,282.6431,0.00010932,1.452e-05,0.0,0 STARLINK-3357,1 51150U 22005AY  24155.80778597  .00001452  00000-0  10932-3 0  9999,2 51150  53.2193 309.2346 0000968  77.4669 282.6431 15.08839337131543,6917.882,95.438,540.417,539.078,0.0
51150.0,STARLINK-3357,PAYLOAD,2024-06-04 03:20:07,15.08850269,0.0001004,53.2194,307.7479,72.4328,287.6774,0.00010353,1.361e-05,0.0,0 STARLINK-3357,1 51150U 22005AY  24156.13897834  .00001361  00000-0  10353-3 0  9998,2 51150  53.2194 307.7479 0001004  72.4328 287.6774 15.08850269132704,6917.849,95.437,540.409,539.019,0.0
51150.0,STARLINK-3357,PAYLOAD,2024-06-04 19:14:00,15.08837111,0.0001349,53.2161,304.7737,77.4843,282.63,-5.315e-06,-3.72e-06,0.0,0 STARLINK-3357,1 51150U 22005AY  24156.80139156 -.00000372  00000-0 -53150-5 0  9995,2 51150  53.2161 304.7737 0001349  77.4843 282.6300 15.08837111132803,6917.889,95.438,540.687,538.821,0.0
51150.0,STARLINK-3357,PAYLOAD,2024-06-05 03:10:55,15.08847254,0.0001507,53.2164,303.286,84.2313,275.8851,6.4063e-05,7.32e-06,0.0,0 STARLINK-3357,1 51150U 22005AY  24157.13258347  .00000732  00000-0  64063-4 0  9998,2 51150  53.2164 303.2860 0001507  84.2313 275.8851 15.08847254132850,6917.858,95.437,540.766,538.681,0.0
51150.0,STARLINK-3357,PAYLOAD,2024-06-05 15:54:01,15.08827826,0.0001313,53.2174,300.9073,88.0792,272.035,-9.0993e-05,-1.735e-05,0.0,0 STARLINK-3357,1 51150U 22005AY  24157.66252106 -.00001735  00000-0 -90993-4 0  9990,2 51150  53.2174 300.9073 0001313  88.0792 272.0350 15.08827826132934,6917.918,95.438,540.691,538.874,0.0
51150.0,STARLINK-3357,PAYLOAD,2024-06-06 03:01:43,15.08840148,0.0001627,53.2162,298.8258,87.136,272.9818,-5.8247e-05,-1.215e-05,0.0,0 STARLINK-3357,1 51150U 22005AY  24158.12619300 -.00001215  00000-0 -58247-4 0  9994,2 51150  53.2162 298.8258 0001627  87.1360 272.9818 15.08840148133009,6917.88,95.438,540.87,538.619,0.0
51150.0,STARLINK-3357,PAYLOAD,2024-06-06 12:34:01,15.0883899,0.0001418,53.2162,297.0405,98.8846,261.2307,0.00010771,1.427e-05,0.0,0 STARLINK-3357,1 51150U 22005AY  24158.52362893  .00001427  00000-0  10771-3 0  9992,2 51150  53.2162 297.0405 0001418  98.8846 261.2307 15.08838990131958,6917.883,95.438,540.729,538.768,0.0
51150.0,STARLINK-3357,PAYLOAD,2024-06-06 15:44:47,15.08839579,0.0001284,53.2181,296.4457,101.4045,258.7092,0.00011006,1.464e-05,0.0,0 STARLINK-3357,1 51150U 22005AY  24158.65610862  .00001464  00000-0  11006-3 0  9991,2 51150  53.2181 296.4457 0001284 101.4045 258.7092 15.08839579131970,6917.882,95.438,540.635,538.858,0.0
51150.0,STARLINK-3357,PAYLOAD,2024-06-06 18:55:33,15.08844164,0.0001364,53.2178,295.8502,114.607,245.5064,5.8576e-05,6.45e-06,0.0,0 STARLINK-3357,1 51150U 22005AY  24158.78858730  .00000645  00000-0  58576-4 0  9997,2 51150  53.2178 295.8502 0001364 114.6070 245.5064 15.08844164133109,6917.868,95.437,540.676,538.789,0.0
51150.0,STARLINK-3357,PAYLOAD,2024-06-07 18:46:21,15.08838229,0.000137,53.2176,291.3898,115.7418,244.3715,4.8606e-05,4.86e-06,0.0,0 STARLINK-3357,1 51150U 22005AY  24159.78219330  .00000486  00000-0  48606-4 0  9991,2 51150  53.2176 291.3898 0001370 115.7418 244.3715 15.08838229133252,6917.886,95.438,540.699,538.803,0.0
51150.0,STARLINK-3357,PAYLOAD,2024-06-08 15:26:22,15.08831935,0.0001025,53.2168,287.5244,99.1443,260.9665,-9.787e-06,-4.43e-06,0.0,0 STARLINK-3357,1 51150U 22005AY  24160.64332121 -.00000443  00000-0 -97870-5 0  9995,2 51150  53.2168 287.5244 0001025  99.1443 260.9665 15.08831935132271,6917.905,95.438,540.479,539.061,0.0
51150.0,STARLINK-3357,PAYLOAD,2024-06-09 12:06:23,15.08850858,9.61e-05,53.218,283.6603,91.1072,269.003,-0.00014691,-2.626e-05,0.0,0 STARLINK-3357,1 51150U 22005AY  24161.50443907 -.00002626  00000-0 -14691-3 0  9999,2 51150  53.2180 283.6603 0000961  91.1072 269.0030 15.08850858133518,6917.847,95.437,540.377,539.047,0.0
51150.0,STARLINK-3357,PAYLOAD,2024-06-09 15:17:09,15.08841012,0.0001042,53.2179,283.0686,95.6791,264.432,4.5821e-05,4.42e-06,0.0,0 STARLINK-3357,1 51150U 22005AY  24161.63691837  .00000442  00000-0  45821-4 0  9992,2 51150  53.2179 283.0686 0001042  95.6791 264.4320 15.08841012132421,6917.877,95.437,540.463,539.021,0.0
51150.0,STARLINK-3357,PAYLOAD,2024-06-10 00:49:27,15.08850255,0.0001172,53.2188,281.2792,88.8198,271.2928,0.00019967,2.892e-05,0.0,0 STARLINK-3357,1 51150U 22005AY  24162.03434625  .00002892  00000-0  19967-3 0  9999,2 51150  53.2188 281.2792 0001172  88.8198 271.2928 15.08850255133596,6917.849,95.437,540.525,538.903,0.0
51150.0,STARLINK-3357,PAYLOAD,2024-06-10 13:32:34,15.08827584,0.0001212,53.2185,278.9022,79.3938,280.7191,4.5996e-05,4.44e-06,0.0,0 STARLINK-3357,1 51150U 22005AY  24162.56428838  .00000444  00000-0  45996-4 0  9999,2 51150  53.2185 278.9022 0001212  79.3938 280.7191 15.08827584133679,6917.918,95.438,540.622,538.945,0.0
51150.0,STARLINK-3357,PAYLOAD,2024-06-10 15:07:57,15.0883395,0.0001085,53.2176,278.6078,74.2784,285.8328,0.00012433,1.691e-05,0.0,0 STARLINK-3357,1 51150U 22005AY  24162.63052353  .00001691  00000-0  12433-3 0  9996,2 51150  53.2176 278.6078 0001085  74.2784 285.8328 15.08833950133681,6917.899,95.438,540.514,539.013,0.0
